EVENT_NAME: CENTRAL_ITALY
EVENT_ID: EMSC-20161026_0000077
EVENT_DATE_YYYYMMDD: 20161026
EVENT_TIME_HHMMSS: 171036
EVENT_LATITUDE_DEGREE: 42.8747
EVENT_LONGITUDE_DEGREE: 13.1243
EVENT_DEPTH_KM: 8.1
HYPOCENTER_REFERENCE: INGV-BULLETIN
MAGNITUDE_W: 5.4
MAGNITUDE_W_REFERENCE: INGV-webservice
MAGNITUDE_L: 
MAGNITUDE_L_REFERENCE: 
FOCAL_MECHANISM: Normal faulting
NETWORK: IT
STATION_CODE: CMI
STATION_NAME: Campi
STATION_LATITUDE_DEGREE: 42.850399
STATION_LONGITUDE_DEGREE: 13.092800
STATION_ELEVATION_M: 767
LOCATION: 
SENSOR_DEPTH_M: 0.0
VS30_M/S: 
SITE_CLASSIFICATION_EC8: C (inferred from geology)
MORPHOLOGIC_CLASSIFICATION: 
EPICENTRAL_DISTANCE_KM: 3.7
EARTHQUAKE_BACKAZIMUTH_DEGREE: 223.6
DATE_TIME_FIRST_SAMPLE_YYYYMMDD_HHMMSS: 
DATE_TIME_FIRST_SAMPLE_PRECISION: 
SAMPLING_INTERVAL_S: 
NDATA: 105
DURATION_S: 
STREAM: HGE
UNITS: cm
INSTRUMENT: sensor = Unknown [Unknown] | digitizer = Unknown [Unknown]
INSTRUMENT_ANALOG/DIGITAL: D
INSTRUMENTAL_FREQUENCY_HZ: 
INSTRUMENTAL_DAMPING: 
FULL_SCALE_G: 
N_BIT_DIGITAL_CONVERTER: 
PGD_CM: -5.566484
TIME_PGD_S: 
BASELINE_CORRECTION: BASELINE REMOVED
FILTER_TYPE: BUTTERWORTH
FILTER_ORDER: 2
LOW_CUT_FREQUENCY_HZ: 0.150
HIGH_CUT_FREQUENCY_HZ: 30.000
LATE/NORMAL_TRIGGERED: NT
DATABASE_VERSION: 0.5
HEADER_FORMAT: DYNA 1.2
DATA_TYPE: DISPLACEMENT RESPONSE SPECTRUM
PROCESSING: manual (Paolucci et al., 2011)
DATA_TIMESTAMP_YYYYMMDD_HHMMSS: 20210807_162227.222
DATA_LICENSE: CC-BY3_0-IT (http://creativecommons.org/licenses/by/3.0/deed.en)
DATA_CITATION: Luzi L., Lanzano G., Felicetta C., D?Amico M. C., Russo E., Sgobba S., Pacor, F., & ORFEUS Working Group 5 (2020). Engineering Strong Motion Database (ESM) (Version 2.0). Istituto Nazionale di Geofisica e Vulcanologia (INGV). https://doi.org/10.13127/ESM.2
DATA_CREATOR: ESM working group
ORIGINAL_DATA_MEDIATOR_CITATION: Ufficio Rischio Sismico e Vulcanico del Dipartimento della Protezione Civile (http://www.protezionecivile.gov.it/)
ORIGINAL_DATA_MEDIATOR: Rete Accelerometrica Nazionale - RAN Download (http://www.mot1.it/randownload/)
ORIGINAL_DATA_CREATOR_CITATION: Presidency Of Counsil Of Ministers-Civil Protection Department. (1972). Italian Strong Motion Network. Presidency of Counsil of Ministers - Civil Protection Department. https://doi.org/10.7914/SN/IT http://www.fdsn.org/networks/detail/IT/
ORIGINAL_DATA_CREATOR: network: IT (Italian Strong Motion Network (RAN)); owner: Presidency of Counsil of Ministers - Civil Protection Department (PCM - DPC)
USER1: 
USER2: 
USER3: 
USER4: 
USER5: 
    0.010000     0.001792
    0.020000     0.007381
    0.022000     0.008953
    0.025000     0.011728
    0.029000     0.015777
    0.030000     0.016918
    0.032000     0.019082
    0.035001     0.022675
    0.036000     0.023996
    0.040000     0.030519
    0.041999     0.033630
    0.044001     0.037936
    0.045000     0.040116
    0.046000     0.042204
    0.048001     0.046539
    0.050000     0.051786
    0.054999     0.059982
    0.059999     0.065328
    0.064998     0.083112
    0.067002     0.087657
    0.069999     0.108745
    0.075002     0.134547
    0.080000     0.148577
    0.084998     0.155951
    0.090001     0.204664
    0.095003     0.270889
    0.100000     0.368922
    0.109999     0.495881
    0.120005     0.532013
    0.130005     0.520990
    0.132996     0.537748
    0.139997     0.633853
    0.149993     0.775733
    0.160000     0.838558
    0.170010     0.910588
    0.179986     1.027465
    0.190006     1.071061
    0.200000     1.130188
    0.220022     1.362745
    0.239981     1.894619
    0.250000     2.196217
    0.260010     2.466143
    0.280034     2.918849
    0.290023     3.114821
    0.300030     3.369576
    0.320000     4.456946
    0.340020     5.580769
    0.350017     6.083149
    0.359971     6.504204
    0.379939     6.970683
    0.400000     7.364874
    0.419992     8.051742
    0.439947     8.600840
    0.450045     8.835138
    0.459982     9.050406
    0.480077     9.473518
    0.500000     9.909491
    0.550055    10.884556
    0.599880    11.085983
    0.650195    13.173430
    0.667111    13.748581
    0.699790    14.286882
    0.750188    13.956369
    0.800000    13.189042
    0.850340    12.702785
    0.900090    11.922477
    0.949668    10.834330
    1.000000    10.645567
    1.100110     9.916015
    1.200480     8.879192
    1.300390     8.222281
    1.400560     7.446732
    1.499250     6.841929
    1.600000     7.088373
    1.700680     7.259593
    1.798561     7.375203
    1.901141     7.443227
    2.000000     7.473970
    2.197802     7.459961
    2.398082     7.394901
    2.500000     7.350133
    2.597403     7.300321
    2.801121     7.187812
    3.003003     7.074618
    3.205128     6.970919
    3.401361     6.877864
    3.496503     6.834229
    3.597122     6.791434
    3.802281     6.706610
    4.000000     6.622904
    4.201681     6.541343
    4.405286     6.463008
    4.608295     6.389190
    4.807692     6.321572
    5.000000     6.259838
    5.494505     6.131663
    5.988024     6.033170
    6.493506     5.955539
    6.993007     5.892965
    7.518797     5.841075
    8.000000     5.796060
    8.474576     5.757837
    9.009009     5.725283
    9.523809     5.698392
   10.000000     5.672251
