EVENT_NAME: CENTRAL_ITALY
EVENT_ID: EMSC-20161026_0000077
EVENT_DATE_YYYYMMDD: 20161026
EVENT_TIME_HHMMSS: 171036
EVENT_LATITUDE_DEGREE: 42.8747
EVENT_LONGITUDE_DEGREE: 13.1243
EVENT_DEPTH_KM: 8.1
HYPOCENTER_REFERENCE: INGV-BULLETIN
MAGNITUDE_W: 5.4
MAGNITUDE_W_REFERENCE: INGV-webservice
MAGNITUDE_L: 
MAGNITUDE_L_REFERENCE: 
FOCAL_MECHANISM: Normal faulting
NETWORK: IT
STATION_CODE: CMI
STATION_NAME: Campi
STATION_LATITUDE_DEGREE: 42.850399
STATION_LONGITUDE_DEGREE: 13.092800
STATION_ELEVATION_M: 767
LOCATION: 
SENSOR_DEPTH_M: 0.0
VS30_M/S: 
SITE_CLASSIFICATION_EC8: C (inferred from geology)
MORPHOLOGIC_CLASSIFICATION: 
EPICENTRAL_DISTANCE_KM: 3.7
EARTHQUAKE_BACKAZIMUTH_DEGREE: 223.6
DATE_TIME_FIRST_SAMPLE_YYYYMMDD_HHMMSS: 
DATE_TIME_FIRST_SAMPLE_PRECISION: 
SAMPLING_INTERVAL_S: 
NDATA: 105
DURATION_S: 
STREAM: HGE
UNITS: cm/s^2
INSTRUMENT: sensor = Unknown [Unknown] | digitizer = Unknown [Unknown]
INSTRUMENT_ANALOG/DIGITAL: D
INSTRUMENTAL_FREQUENCY_HZ: 
INSTRUMENTAL_DAMPING: 
FULL_SCALE_G: 
N_BIT_DIGITAL_CONVERTER: 
PGA_CM/S^2: -706.800625
TIME_PGA_S: 
BASELINE_CORRECTION: BASELINE REMOVED
FILTER_TYPE: BUTTERWORTH
FILTER_ORDER: 2
LOW_CUT_FREQUENCY_HZ: 0.150
HIGH_CUT_FREQUENCY_HZ: 30.000
LATE/NORMAL_TRIGGERED: NT
DATABASE_VERSION: 0.5
HEADER_FORMAT: DYNA 1.2
DATA_TYPE: ACCELERATION RESPONSE SPECTRUM
PROCESSING: manual (Paolucci et al., 2011)
DATA_TIMESTAMP_YYYYMMDD_HHMMSS: 20210807_162227.069
DATA_LICENSE: CC-BY3_0-IT (http://creativecommons.org/licenses/by/3.0/deed.en)
DATA_CITATION: Luzi L., Lanzano G., Felicetta C., D?Amico M. C., Russo E., Sgobba S., Pacor, F., & ORFEUS Working Group 5 (2020). Engineering Strong Motion Database (ESM) (Version 2.0). Istituto Nazionale di Geofisica e Vulcanologia (INGV). https://doi.org/10.13127/ESM.2
DATA_CREATOR: ESM working group
ORIGINAL_DATA_MEDIATOR_CITATION: Ufficio Rischio Sismico e Vulcanico del Dipartimento della Protezione Civile (http://www.protezionecivile.gov.it/)
ORIGINAL_DATA_MEDIATOR: Rete Accelerometrica Nazionale - RAN Download (http://www.mot1.it/randownload/)
ORIGINAL_DATA_CREATOR_CITATION: Presidency Of Counsil Of Ministers-Civil Protection Department. (1972). Italian Strong Motion Network. Presidency of Counsil of Ministers - Civil Protection Department. https://doi.org/10.7914/SN/IT http://www.fdsn.org/networks/detail/IT/
ORIGINAL_DATA_CREATOR: network: IT (Italian Strong Motion Network (RAN)); owner: Presidency of Counsil of Ministers - Civil Protection Department (PCM - DPC)
USER1: 
USER2: 
USER3: 
USER4: 
USER5: 
    0.010000   707.383057
    0.020000   728.868286
    0.022000   730.468384
    0.025000   741.973450
    0.029000   741.274048
    0.030000   741.560913
    0.032000   735.964966
    0.035001   730.814636
    0.036000   731.192322
    0.040000   752.933960
    0.041999   753.415833
    0.044001   774.838440
    0.045000   781.721924
    0.046000   787.961548
    0.048001   798.102905
    0.050000   816.110474
    0.054999   781.948425
    0.059999   717.699707
    0.064998   776.395386
    0.067002   773.094604
    0.069999   881.484253
    0.075002   944.562683
    0.080000   918.108704
    0.084998   856.192871
    0.090001   993.130310
    0.095003  1192.990356
    0.100000  1461.609375
    0.109999  1635.174561
    0.120005  1472.378906
    0.130005  1225.613037
    0.132996  1202.776978
    0.139997  1278.035400
    0.149993  1362.716553
    0.160000  1298.907349
    0.170010  1248.354492
    0.179986  1259.821045
    0.190006  1174.743042
    0.200000  1119.933105
    0.220022  1113.690186
    0.239981  1301.346436
    0.250000  1392.008545
    0.260010  1445.340454
    0.280034  1475.927246
    0.290023  1467.404419
    0.300030  1483.469360
    0.320000  1725.088623
    0.340020  1914.517700
    0.350017  1969.005127
    0.359971  1991.121948
    0.379939  1915.971436
    0.400000  1827.960938
    0.419992  1812.007080
    0.439947  1762.367065
    0.450045  1731.271973
    0.459982  1697.809692
    0.480077  1630.568970
    0.500000  1571.637085
    0.550055  1428.948364
    0.599880  1223.266235
    0.650195  1237.789551
    0.667111  1226.242676
    0.699790  1156.755493
    0.750188   984.932068
    0.800000   817.604248
    0.850340   698.341553
    0.900090   585.208557
    0.949668   477.693512
    1.000000   423.955811
    1.100110   327.137421
    1.200480   247.940598
    1.300390   196.037018
    1.400560   153.481171
    1.499250   123.248192
    1.600000   112.489014
    1.700680   102.311829
    1.798561    92.995171
    1.901141    84.509590
    2.000000    76.841911
    2.197802    63.867657
    2.398082    53.658134
    2.500000    49.380379
    2.597403    45.558357
    2.801121    39.068974
    3.003003    33.871750
    3.205128    29.684872
    3.401361    26.260380
    3.496503    24.774296
    3.597122    23.417795
    3.802281    21.035023
    4.000000    19.004391
    4.201681    17.262848
    4.405286    15.765587
    4.608295    14.472664
    4.807692    13.347462
    5.000000    12.361900
    5.494505    10.389730
    5.988024     8.914469
    6.493506     7.777365
    6.993007     6.881380
    7.518797     6.154051
    8.000000     5.556341
    8.474576     5.059951
    9.009009     4.639659
    9.523809     4.280467
   10.000000     3.967705
